STARLINK-37324          
1 68749U 26082X   26113.41434498 -.00586386  00000+0 -25638-2 0  9995
2 68749  97.2875 335.5545 0004018 179.7231 180.4043 15.85953324  1160
