{
  "norad_id": 68749,
  "name": "STARLINK-37324",
  "history": [
    {
      "epoch": "2026-04-23T09:56:39.406272Z",
      "apogee_km": 316.33084418575163,
      "perigee_km": 310.9526616020503,
      "latitude_deg": 1.4504239995084546e-05,
      "longitude_deg": -25.07161284341044,
      "height_km": 319.51406140703637,
      "semi_major_axis_km": 6691.778752893901,
      "eccentricity": 0.00040185,
      "inclination_deg": 97.2875,
      "raan_deg": 335.5545,
      "arg_perigee_deg": 179.7231,
      "mean_anomaly_deg": 180.4043,
      "mean_motion_rev_day": 15.85953324
    }
  ]
}